[{"OBJECT_NAME":"GEESAT-5 07","OBJECT_ID":"2025-201G","EPOCH":"2026-03-09T16:52:51.170592","MEAN_MOTION":14.83775124,"ECCENTRICITY":0.0013769,"INCLINATION":49.9868,"RA_OF_ASC_NODE":140.5179,"ARG_OF_PERICENTER":289.0003,"MEAN_ANOMALY":70.9443,"EPHEMERIS_TYPE":0,"CLASSIFICATION_TYPE":"U","NORAD_CAT_ID":65556,"ELEMENT_SET_NO":999,"REV_AT_EPOCH":2702,"BSTAR":0.00035187947,"MEAN_MOTION_DOT":2.721e-5,"MEAN_MOTION_DDOT":0},{"OBJECT_NAME":"CZ-4C R\/B","OBJECT_ID":"2017-072C","EPOCH":"2026-03-09T20:32:54.416832","MEAN_MOTION":14.58694113,"ECCENTRICITY":0.01236855,"INCLINATION":98.57,"RA_OF_ASC_NODE":173.6623,"ARG_OF_PERICENTER":97.8741,"MEAN_ANOMALY":263.6517,"EPHEMERIS_TYPE":0,"CLASSIFICATION_TYPE":"U","NORAD_CAT_ID":43012,"ELEMENT_SET_NO":999,"REV_AT_EPOCH":44215,"BSTAR":0.00014561657,"MEAN_MOTION_DOT":6.99e-6,"MEAN_MOTION_DDOT":0}]
